TDRS 3                  
1 19548U 88091B   17006.38959435 -.00000301  00000-0  00000+0 0  9997
2 19548  14.8684   9.8369 0039505 305.6998 228.2172  1.00261992 90785
SKYNET 4C               
1 20776U 90079A   17004.66593927  .00000129  00000-0  00000+0 0  9997
2 20776  13.7499  17.7649 0003658 260.5635  99.4245  1.00273606 96340
TDRS 5                  
1 21639U 91054B   17006.40390712  .00000084  00000-0  00000+0 0  9991
2 21639  14.2664  23.1487 0023690 329.9831  90.7393  1.00273779 93128
TDRS 6                  
1 22314U 93003B   17006.38992233 -.00000294  00000-0  00000+0 0  9995
2 22314  13.7811  26.0495 0008450 279.2893 255.3715  1.00274834 87796
INTELSAT 701 (IS-701)   
1 22871U 93066A   17006.13776166 -.00000217  00000-0  00000+0 0  9995
2 22871   3.8900  67.8841 0005577 215.1698 202.9404  1.00271549 84778
OPTUS B3                
1 23227U 94055A   17006.04371462 -.00000054  00000-0  00000+0 0  9999
2 23227   7.1392  51.3860 0007388 249.5363 279.4165  0.98694558 81851
ASTRA 1D                
1 23331U 94070A   17005.43628333 -.00000286  00000-0  00000+0 0  9993
2 23331   7.3150  50.4950 0003832 239.4989 284.9545  1.00269743 81573
BRASILSAT B2            
1 23536U 95016A   17006.02167751 -.00000279  00000-0  00000+0 0  9991
2 23536   6.9399  52.3383 0002519 241.6957 111.5435  1.00273619 79726
AMSC 1                  
1 23553U 95019A   17005.11040879 -.00000113  00000-0  00000+0 0  9990
2 23553   9.8748  41.3453 0004720 223.6338 136.3441  1.00271753 79572
TDRS 7                  
1 23613U 95035B   17005.87546883 -.00000200  00000-0  00000+0 0  9991
2 23613  14.9116  16.8668 0020095  14.6283 114.0715  1.00268797 78569
ECHOSTAR 1              
1 23754U 95073A   17006.32688306 -.00000240  00000-0  00000+0 0  9991
2 23754   0.4729  90.9753 0002876 203.1639 212.3818  1.00270883 76866
INMARSAT 3-F1           
1 23839U 96020A   17004.86636250  .00000011  00000-0  00000+0 0  9991
2 23839   3.6758  68.2744 0006285 219.6524 193.0807  1.00271029 76022
ASTRA 1F                
1 23842U 96021A   17006.01090838  .00000141  00000-0  00000+0 0  9995
2 23842   0.0393 343.1788 0003472 297.1198 233.6740  1.00271742 75745
MSAT M1                 
1 23846U 96022A   17006.14320838 -.00000084  00000-0  00000+0 0  9997
2 23846   7.5061  50.0374 0005695 236.6848 123.2440  1.00272296 75855
INMARSAT 3-F2           
1 24307U 96053A   17006.25711714 -.00000124  00000-0  00000+0 0  9998
2 24307   2.3000  78.5321 0008007 208.2405 256.2991  1.00272470 74441
AMC-1 (GE-1)            
1 24315U 96054A   17005.30328486  .00000061  00000-0  00000+0 0  9992
2 24315   1.2304  85.8772 0002954 191.4400 167.7913  1.00272336 74439
AFRICASAT-2 (MEASAT-2)  
1 24653U 96063B   17006.31706204 -.00000228  00000-0  00000+0 0  9993
2 24653   7.2358  50.9136 0011174 192.5095 124.7930  1.00271667 73765
EUTELSAT 48A            
1 24665U 96067A   17006.18577285  .00000114  00000-0  00000+0 0  9993
2 24665   6.0894  56.1953 0006523 231.0686 293.8127  1.00275413 74098
INMARSAT 3-F3           
1 24674U 96070A   17006.48600815  .00000037  00000-0  00000+0 0  9990
2 24674   3.1167  72.5628 0005709 219.0478 167.6722  1.00273313 73387
AMC-2 (GE-2)            
1 24713U 97002A   17006.45590229 -.00000211  00000-0  00000+0 0  9999
2 24713   4.0369  66.8043 0005028 214.5154 264.1792  1.00270392 23746
INTELSAT 26 (IS-26)     
1 24732U 97007A   17005.81407135  .00000004  00000-0  00000+0 0  9996
2 24732   7.2094  51.2344 0004237 206.5568 205.1118  1.00270572 72695
GALAXY 25 (G-25)        
1 24812U 97026A   17005.96486107 -.00000160  00000-0  00000+0 0  9992
2 24812   0.0259  28.9752 0003481 253.9092  77.0768  1.00270920 71772
ABS-3                   
1 24901U 97042A   17006.48859645 -.00000193  00000-0  00000+0 0  9994
2 24901   4.5941  64.2050 0008192 244.1353  59.1615  1.00273076 70943
INTELSAT 5 (IS-5)       
1 24916U 97046A   17005.47073882 -.00000140  00000-0  00000-0 0  9996
2 24916   3.2305  71.9151 0004908 211.2639 148.4976  1.00270365 71030
METEOSAT-7              
1 24932U 97049B   17005.65449666  .00000049  00000-0  00000+0 0  9990
2 24932  10.4615  38.7293 0001731 282.2959  77.7026  1.00273855 70838
AMC-3 (GE-3)            
1 24936U 97050A   17006.35577264 -.00000258  00000-0  00000+0 0  9993
2 24936   0.0427  80.9071 0002798 202.7628 238.5249  1.00270249 70866
NSS-5                   
1 24957U 97053A   17006.18348321  .00000109  00000-0  00000+0 0  9994
2 24957   3.5267  70.1230 0003728 214.8911 297.4898  1.00269510 70650
ECHOSTAR 3              
1 25004U 97059A   17005.10373317 -.00000280  00000-0  00000+0 0  9999
2 25004   1.8209  80.9216 0001343 233.4077 126.1088  1.00270412 70556
JCSAT-1B                
1 25067U 97075A   17005.30419125 -.00000205  00000-0  00000+0 0  9993
2 25067   5.2789  59.9192 0008266 221.2371  83.4199  1.00271671 69956
ASTRA 1G                
1 25071U 97076A   17005.87131034  .00000026  00000-0  00000-0 0  9992
2 25071   1.9930  78.9720 0003755 205.6284 197.5062  1.00270367 69976
BRASILSAT B3            
1 25152U 98006A   17006.07417250 -.00000286  00000-0  00000+0 0  9994
2 25152   3.7236  69.1888 0001938 304.3544  55.4582  1.00402700 69347
INMARSAT 3-F5           
1 25153U 98006B   17006.31455650 -.00000287  00000-0  00000+0 0  9999
2 25153   2.2545  74.4477 0005329 210.7183 240.1702  1.00269187 69308
NSS-806                 
1 25239U 98014A   17005.20415181 -.00000276  00000-0  00000+0 0  9993
2 25239   0.0535 356.5841 0004611 291.0472 203.3293  1.00268966 69066
CHINASAT 5A (ZX 5A)     
1 25354U 98033A   17005.91779294 -.00000199  00000-0  00000-0 0  9993
2 25354   0.9039  88.0949 0002748 158.7508 344.8406  1.00027669 72655
THOR III                
1 25358U 98035A   17004.88796858 -.00000041  00000-0  00000+0 0  9994
2 25358   5.1413  60.1557 0002575 232.4785 127.4262  1.00270873 68111
INTELSAT 805 (IS-805)   
1 25371U 98037A   17006.29422786 -.00000029  00000-0  00000+0 0  9990
2 25371   0.0246 306.0227 0003148 341.3445  93.6033  1.00271847 67986
ASTRA 2A                
1 25462U 98050A   17005.92136837 -.00000357  00000-0  00000+0 0  9998
2 25462   0.0946 256.8807 0002223   8.0326 285.9371  1.00272019 67150
AFRISTAR                
1 25515U 98063A   17006.18192137  .00000124  00000-0  00000+0 0  9996
2 25515   2.9877  70.1634 0004333 220.4156 261.8080  1.00271808 66540
INTELSAT 8 (IS-8)       
1 25522U 98065A   17006.13987736 -.00000158  00000-0  00000+0 0  9996
2 25522   0.6534  87.0447 0304803 218.5732 177.4450  0.95185377 66535
JCSAT-4A                
1 25630U 99006A   17005.87235413 -.00000154  00000-0  00000+0 0  9996
2 25630   1.9627  80.8344 0002017 207.9185 212.8755  1.00270613 65407
SKYNET 4E               
1 25639U 99009B   17002.92179455  .00000027  00000-0  00000-0 0  9993
2 25639   9.9828  29.9011 0003359 249.3225 161.3195  1.00271937 16780
ASIASAT 3S              
1 25657U 99013A   17005.91456191 -.00000235  00000-0  00000+0 0  9996
2 25657   2.1795  79.0074 0002793 197.0096 304.9496  1.00270023 65237
NIMIQ 1                 
1 25740U 99027A   17006.45553862 -.00000197  00000-0  00000+0 0  9994
2 25740   0.0396 286.2332 0005560   8.2591 249.2062  1.00272104 64625
ASTRA 1H                
1 25785U 99033A   17005.93496806  .00000145  00000-0  00000+0 0  9998
2 25785   3.5110  70.2854 0000589 299.5820 116.0054  1.00129651 64206
TELKOM 1                
1 25880U 99042A   17006.42552212 -.00000343  00000-0  00000+0 0  9994
2 25880   0.0265 124.2744 0002225 190.6034  52.5416  1.00269290 63771
ABS-7                   
1 25894U 99046A   17005.67479112 -.00000360  00000-0  00000+0 0  9995
2 25894   0.0127  81.6990 0001407 235.9296 146.8761  1.00270378 62550
ABS-6                   
1 25924U 99053A   17005.26645468 -.00000117  00000-0  00000+0 0  9991
2 25924   0.0300 354.6779 0001128 323.2787  42.0348  1.00269277 63286
TELSTAR 12 (ORION 2)    
1 25949U 99059A   17006.19223458 -.00000061  00000-0  00000+0 0  9996
2 25949   0.5952  89.2631 0003087 198.5350 138.1546  1.00271537 62945
AMC-4 (GE-4)            
1 25954U 99060A   17004.89531546 -.00000269  00000-0  00000-0 0  9990
2 25954   0.0371  71.4851 0000419 100.0984 188.4152  1.00271513  9143
GALAXY 11 (G-11)        
1 26038U 99071A   17006.18300042  .00000138  00000-0  00000+0 0  9998
2 26038   0.0081  91.6971 0002188 249.7975 235.3361  1.00270961 62518
HISPASAT 1C             
1 26071U 00007A   17005.85742597 -.00000210  00000-0  00000+0 0  9996
2 26071   0.2294  85.7597 0005860 232.0559  12.6278  1.00274562 62046
SUPERBIRD-B2            
1 26095U 00012A   17006.39886100 -.00000092  00000-0  00000+0 0  9995
2 26095   0.0640 101.8044 0002241 190.9733 118.9463  1.00270848 61855
ASIASTAR                
1 26107U 00016A   17005.95575366 -.00000330  00000-0  00000-0 0  9999
2 26107   1.3416  82.1060 0004384 204.1737 268.4774  1.00267065 61342
EUTELSAT 16C            
1 26243U 00019A   17005.80673347  .00000092  00000-0  00000+0 0  9998
2 26243   3.9649  67.1534 0003476 229.0740 114.2416  1.00270317 61197
EUTELSAT 36A            
1 26369U 00028A   17006.48874692 -.00000215  00000-0  00000+0 0  9996
2 26369   0.6791  84.2577 0004501 210.6989  75.7721  1.00270784 60902
TDRS 8                  
1 26388U 00034A   17005.61830236 -.00000229  00000-0  00000+0 0  9999
2 26388   7.2193  57.2541 0010249 209.6093 150.3001  1.00276543 60587
ECHOSTAR 6              
1 26402U 00038A   17005.50119744 -.00000146  00000-0  00000+0 0  9990
2 26402   3.8780  67.9635 0003849 220.9102 260.6202  1.00271372 60320
INTELSAT 9 (IS-9)       
1 26451U 00043A   17005.24952654 -.00000270  00000-0  00000+0 0  9994
2 26451   3.2150  72.1377 0004063 214.8297 224.7848  1.00269833 60254
BRASILSAT B4            
1 26469U 00046A   17005.20069983 -.00000166  00000-0  00000-0 0  9991
2 26469   1.3222  85.9108 0002831 214.8297 144.4442  1.00268577 60372
